NORAD_CAT_ID,OBJECT_NAME,OBJECT_TYPE,EPOCH,MEAN_MOTION,ECCENTRICITY,INCLINATION,RA_OF_ASC_NODE,ARG_OF_PERICENTER,MEAN_ANOMALY,BSTAR,MEAN_MOTION_DOT,MEAN_MOTION_DDOT,TLE_LINE0,TLE_LINE1,TLE_LINE2,SEMIMAJOR_AXIS,PERIOD,APOGEE,PERIGEE,DECAYED
51772.0,STARLINK-3623,PAYLOAD,2024-03-29 13:48:10,15.08845742,0.0001405,53.2163,286.9521,95.7044,264.4108,7.6281e-05,9.26e-06,0.0,0 STARLINK-3623,1 51772U 22017E   24089.57512104  .00000926  00000-0  76281-4 0  9997,2 51772  53.2163 286.9521 0001405  95.7044 264.4108 15.08845742116902,6917.863,95.437,540.7,538.756,0.0
51772.0,STARLINK-3623,PAYLOAD,2024-03-29 20:09:42,15.0885099,0.0001698,53.2165,285.7612,101.1784,258.9399,0.00014204,1.974e-05,0.0,0 STARLINK-3623,1 51772U 22017E   24089.84007699  .00001974  00000-0  14204-3 0  9995,2 51772  53.2165 285.7612 0001698 101.1784 258.9399 15.08850990115437,6917.847,95.437,540.886,538.537,0.0
51772.0,STARLINK-3623,PAYLOAD,2024-03-30 05:42:01,15.08842233,0.0001518,53.2161,283.9721,83.5004,276.6161,1.0495e-05,-1.21e-06,0.0,0 STARLINK-3623,1 51772U 22017E   24090.23751970 -.00000121  00000-0  10495-4 0  9991,2 51772  53.2161 283.9721 0001518  83.5004 276.6161 15.08842233115494,6917.874,95.437,540.789,538.688,0.0
51772.0,STARLINK-3623,PAYLOAD,2024-03-30 20:00:29,15.08841487,0.0001541,53.2188,281.2967,74.399,285.7172,-5.4411e-05,-1.154e-05,0.0,0 STARLINK-3623,1 51772U 22017E   24090.83368009 -.00001154  00000-0 -54411-4 0  9998,2 51772  53.2188 281.2967 0001541  74.3990 285.7172 15.08841487117095,6917.876,95.437,540.807,538.675,0.0
51772.0,STARLINK-3623,PAYLOAD,2024-03-30 21:35:53,15.08836643,0.0001493,53.2142,281.0023,85.673,274.4433,-6.0618e-05,-1.252e-05,0.0,0 STARLINK-3623,1 51772U 22017E   24090.89992429 -.00001252  00000-0 -60618-4 0  9998,2 51772  53.2142 281.0023 0001493  85.6730 274.4433 15.08836643115595,6917.891,95.438,540.788,538.723,0.0
51772.0,STARLINK-3623,PAYLOAD,2024-03-31 11:54:21,15.08835502,0.0001608,53.2176,278.3258,87.2358,272.8818,-2.4557e-05,-6.79e-06,0.0,0 STARLINK-3623,1 51772U 22017E   24091.49608655 -.00000679  00000-0 -24557-4 0  9994,2 51772  53.2176 278.3258 0001608  87.2358 272.8818 15.08835502117193,6917.894,95.438,540.872,538.647,0.0
51772.0,STARLINK-3623,PAYLOAD,2024-03-31 19:51:17,15.08843221,0.0001394,53.2166,276.8393,85.107,275.0081,0.00010941,1.454e-05,0.0,0 STARLINK-3623,1 51772U 22017E   24091.82728300  .00001454  00000-0  10941-3 0  9992,2 51772  53.2166 276.8393 0001394  85.1070 275.0081 15.08843221115737,6917.871,95.437,540.7,538.771,0.0
51772.0,STARLINK-3623,PAYLOAD,2024-04-01 05:23:36,15.08838399,0.0001832,53.2159,275.0559,94.8073,265.3129,0.00026781,3.977e-05,0.0,0 STARLINK-3623,1 51772U 22017E   24092.22472936  .00003977  00000-0  26781-3 0  9999,2 51772  53.2159 275.0559 0001832  94.8073 265.3129 15.08838399117301,6917.885,95.438,541.018,538.483,0.0
51772.0,STARLINK-3623,PAYLOAD,2024-04-02 11:35:55,15.08842756,0.0001306,53.2164,269.4065,82.6672,277.4468,9.8784e-05,1.285e-05,0.0,0 STARLINK-3623,1 51772U 22017E   24093.48328660  .00001285  00000-0  98784-4 0  9995,2 51772  53.2164 269.4065 0001306  82.6672 277.4468 15.08842756117494,6917.872,95.437,540.64,538.833,0.0
51772.0,STARLINK-3623,PAYLOAD,2024-04-02 21:08:14,15.08845174,0.0001278,53.2167,267.6198,88.4196,271.6942,0.0001037,1.363e-05,0.0,0 STARLINK-3623,1 51772U 22017E   24093.88072461  .00001363  00000-0  10370-3 0  9995,2 51772  53.2167 267.6198 0001278  88.4196 271.6942 15.08845174116047,6917.865,95.437,540.614,538.845,0.0
51772.0,STARLINK-3623,PAYLOAD,2024-04-03 17:48:15,15.08842118,0.0001232,53.2172,263.753,94.5759,265.5374,8.7927e-05,1.112e-05,0.0,0 STARLINK-3623,1 51772U 22017E   24094.74184547  .00001112  00000-0  87927-4 0  9995,2 51772  53.2172 263.7530 0001232  94.5759 265.5374 15.08842118117680,6917.874,95.437,540.591,538.887,0.0
51772.0,STARLINK-3623,PAYLOAD,2024-04-04 14:28:16,15.08839459,0.0001237,53.2166,259.8876,95.4561,264.6572,6.6183e-05,7.66e-06,0.0,0 STARLINK-3623,1 51772U 22017E   24095.60296676  .00000766  00000-0  66183-4 0  9993,2 51772  53.2166 259.8876 0001237  95.4561 264.6572 15.08839459116300,6917.882,95.438,540.603,538.891,0.0
51772.0,STARLINK-3623,PAYLOAD,2024-04-04 17:39:02,15.08843361,0.0001232,53.2174,259.2926,95.3055,264.8078,4.5891e-05,4.43e-06,0.0,0 STARLINK-3623,1 51772U 22017E   24095.73544484  .00000443  00000-0  45891-4 0  9995,2 51772  53.2174 259.2926 0001232  95.3055 264.8078 15.08843361116323,6917.87,95.437,540.587,538.883,0.0
51772.0,STARLINK-3623,PAYLOAD,2024-04-05 11:08:16,15.08841825,0.0001253,53.2173,256.0217,94.0669,266.0467,7.0186e-05,8.29e-06,0.0,0 STARLINK-3623,1 51772U 22017E   24096.46408485  .00000829  00000-0  70186-4 0  9999,2 51772  53.2173 256.0217 0001253  94.0669 266.0467 15.08841825117948,6917.875,95.437,540.607,538.873,0.0
51772.0,STARLINK-3623,PAYLOAD,2024-04-05 14:19:03,15.0884312,0.0001252,53.2174,255.4271,93.9007,266.2129,7.6557e-05,9.31e-06,0.0,0 STARLINK-3623,1 51772U 22017E   24096.59656333  .00000931  00000-0  76557-4 0  9992,2 51772  53.2174 255.4271 0001252  93.9007 266.2129 15.08843120116457,6917.871,95.437,540.602,538.87,0.0
51772.0,STARLINK-3623,PAYLOAD,2024-04-05 17:29:49,15.08846192,0.0001142,53.2175,254.8365,91.5374,268.5749,7.0309e-05,8.31e-06,0.0,0 STARLINK-3623,1 51772U 22017E   24096.72904176  .00000831  00000-0  70309-4 0  9996,2 51772  53.2175 254.8365 0001142  91.5374 268.5749 15.08846192116471,6917.861,95.437,540.516,538.936,0.0
51772.0,STARLINK-3623,PAYLOAD,2024-04-06 10:59:04,15.08836129,0.0001256,53.2176,251.5629,87.3384,272.7752,2.2725e-05,7.4e-07,0.0,0 STARLINK-3623,1 51772U 22017E   24097.45769054  .00000074  00000-0  22725-4 0  9999,2 51772  53.2176 251.5629 0001256  87.3384 272.7752 15.08836129118099,6917.892,95.438,540.626,538.888,0.0
51772.0,STARLINK-3623,PAYLOAD,2024-04-06 17:20:36,15.08838488,0.0001253,53.2176,250.3733,86.7538,273.3597,4.0603e-05,3.58e-06,0.0,0 STARLINK-3623,1 51772U 22017E   24097.72264917  .00000358  00000-0  40603-4 0  9997,2 51772  53.2176 250.3733 0001253  86.7538 273.3597 15.08838488116624,6917.885,95.438,540.617,538.883,0.0
51772.0,STARLINK-3623,PAYLOAD,2024-04-07 10:49:51,15.08836475,0.0001261,53.2175,247.1032,87.8597,272.254,9.6163e-06,-1.35e-06,0.0,0 STARLINK-3623,1 51772U 22017E   24098.45129364 -.00000135  00000-0  96163-5 0  9991,2 51772  53.2175 247.1032 0001261  87.8597 272.2540 15.08836475116737,6917.891,95.438,540.629,538.884,0.0
51772.0,STARLINK-3623,PAYLOAD,2024-04-07 18:46:47,15.08838297,0.0001289,53.218,245.6169,87.4933,272.6207,2.4731e-05,1.06e-06,0.0,0 STARLINK-3623,1 51772U 22017E   24098.78249316  .00000106  00000-0  24731-4 0  9995,2 51772  53.2180 245.6169 0001289  87.4933 272.6207 15.08838297118298,6917.886,95.438,540.642,538.859,0.0
51772.0,STARLINK-3623,PAYLOAD,2024-04-08 09:05:15,15.0883866,0.0001137,53.2182,242.9401,86.0499,274.0623,9.224e-05,1.18e-05,0.0,0 STARLINK-3623,1 51772U 22017E   24099.37865284  .00001180  00000-0  92240-4 0  9992,2 51772  53.2182 242.9401 0001137  86.0499 274.0623 15.08838660116877,6917.884,95.438,540.536,538.963,0.0
51772.0,STARLINK-3623,PAYLOAD,2024-04-09 02:34:29,15.08843078,0.0001352,53.2184,239.6682,83.6069,276.5078,0.00015248,2.14e-05,0.0,0 STARLINK-3623,1 51772U 22017E   24100.10728950  .00002140  00000-0  15248-3 0  9993,2 51772  53.2184 239.6682 0001352  83.6069 276.5078 15.08843078118498,6917.871,95.437,540.671,538.801,0.0
51772.0,STARLINK-3623,PAYLOAD,2024-04-09 08:56:02,15.08839342,0.0001684,53.2179,238.4794,85.0907,275.0278,0.00011245,1.502e-05,0.0,0 STARLINK-3623,1 51772U 22017E   24100.37225391  .00001502  00000-0  11245-3 0  9997,2 51772  53.2179 238.4794 0001684  85.0907 275.0278 15.08839342117021,6917.882,95.438,540.912,538.582,0.0
51772.0,STARLINK-3623,PAYLOAD,2024-04-09 15:17:35,15.08838623,0.0001685,53.2178,237.2896,83.6267,276.4917,9.8858e-05,1.286e-05,0.0,0 STARLINK-3623,1 51772U 22017E   24100.63721549  .00001286  00000-0  98858-4 0  9997,2 51772  53.2178 237.2896 0001685  83.6267 276.4917 15.08838623118571,6917.885,95.438,540.915,538.584,0.0
51772.0,STARLINK-3623,PAYLOAD,2024-04-10 15:08:21,15.08850741,0.000165,53.2166,232.8297,83.1281,276.9899,8.7177e-05,1.1e-05,0.0,0 STARLINK-3623,1 51772U 22017E   24101.63080520  .00001100  00000-0  87177-4 0  9992,2 51772  53.2166 232.8297 0001650  83.1281 276.9899 15.08850741117216,6917.848,95.437,540.854,538.571,0.0
51772.0,STARLINK-3623,PAYLOAD,2024-04-11 02:16:03,15.08841371,0.0001495,53.2157,230.7476,86.2345,273.8819,0.00011433,1.532e-05,0.0,0 STARLINK-3623,1 51772U 22017E   24102.09448837  .00001532  00000-0  11433-3 0  9992,2 51772  53.2157 230.7476 0001495  86.2345 273.8819 15.08841371118795,6917.876,95.437,540.775,538.707,0.0
51772.0,STARLINK-3623,PAYLOAD,2024-04-11 13:23:46,15.08832447,0.0001511,53.2209,228.6654,96.7716,263.3448,0.000135,1.861e-05,0.0,0 STARLINK-3623,1 51772U 22017E   24102.55817538  .00001861  00000-0  13500-3 0  9993,2 51772  53.2209 228.6654 0001511  96.7716 263.3448 15.08832447118868,6917.903,95.438,540.814,538.723,0.0
51772.0,STARLINK-3623,PAYLOAD,2024-04-11 14:59:09,15.08836522,0.000142,53.2169,228.3689,92.7076,267.4079,5.2554e-05,5.48e-06,0.0,0 STARLINK-3623,1 51772U 22017E   24102.62441454  .00000548  00000-0  52554-4 0  9995,2 51772  53.2169 228.3689 0001420  92.7076 267.4079 15.08836522117369,6917.891,95.438,540.738,538.774,0.0
51772.0,STARLINK-3623,PAYLOAD,2024-04-12 14:49:56,15.08837505,0.0001467,53.2194,223.9075,103.3733,256.7423,0.00011868,1.601e-05,0.0,0 STARLINK-3623,1 51772U 22017E   24103.61801294  .00001601  00000-0  11868-3 0  9990,2 51772  53.2194 223.9075 0001467 103.3733 256.7423 15.08837505117510,6917.888,95.438,540.768,538.738,0.0
51772.0,STARLINK-3623,PAYLOAD,2024-04-13 13:05:20,15.08833349,0.0001624,53.2182,219.7444,110.5159,249.6008,6.8204e-05,7.97e-06,0.0,0 STARLINK-3623,1 51772U 22017E   24104.54537899  .00000797  00000-0  68204-4 0  9992,2 51772  53.2182 219.7444 0001624 110.5159 249.6008 15.08833349119162,6917.901,95.438,540.889,538.642,0.0
